{
  "norad_id": 64450,
  "name": "STARLINK-34361",
  "history": [
    {
      "epoch": "2026-03-28T21:34:42.376512Z",
      "apogee_km": 476.6262432292906,
      "perigee_km": 473.89927546504623,
      "latitude_deg": -9.509416947301536e-06,
      "longitude_deg": -150.64710676641948,
      "height_km": 474.7990700474573,
      "semi_major_axis_km": 6853.399759347169,
      "eccentricity": 0.00019895,
      "inclination_deg": 53.1606,
      "raan_deg": 359.3424,
      "arg_perigee_deg": 359.9328,
      "mean_anomaly_deg": 0.1672,
      "mean_motion_rev_day": 15.30184028
    },
    {
      "epoch": "2026-03-29T00:42:48.569184Z",
      "apogee_km": 475.9524778171535,
      "perigee_km": 474.50778802553305,
      "latitude_deg": 3.705541404504855e-05,
      "longitude_deg": 161.59187302825862,
      "height_km": 475.84238313914665,
      "semi_major_axis_km": 6853.367132921343,
      "eccentricity": 0.0001054,
      "inclination_deg": 53.1606,
      "raan_deg": 358.7359,
      "arg_perigee_deg": 66.6503,
      "mean_anomaly_deg": 293.4609,
      "mean_motion_rev_day": 15.30194955
    },
    {
      "epoch": "2026-03-30T00:13:36.407424Z",
      "apogee_km": 475.6802164109831,
      "perigee_km": 474.6265915442764,
      "latitude_deg": 4.6324825158138574e-05,
      "longitude_deg": 163.37679799581161,
      "height_km": 476.54240792927953,
      "semi_major_axis_km": 6853.2904039776295,
      "eccentricity": 7.687e-05,
      "inclination_deg": 53.1613,
      "raan_deg": 354.1858,
      "arg_perigee_deg": 158.3097,
      "mean_anomaly_deg": 201.7937,
      "mean_motion_rev_day": 15.30220653
    },
    {
      "epoch": "2026-03-30T17:28:12.132480Z",
      "apogee_km": 476.08354095552386,
      "perigee_km": 474.29427462751664,
      "latitude_deg": -2.6670012762562695e-05,
      "longitude_deg": -99.31556535569749,
      "height_km": 475.76694301700996,
      "semi_major_axis_km": 6853.32590779152,
      "eccentricity": 0.00013054,
      "inclination_deg": 53.1612,
      "raan_deg": 350.8505,
      "arg_perigee_deg": 69.0244,
      "mean_anomaly_deg": 291.0896,
      "mean_motion_rev_day": 15.30208762
    },
    {
      "epoch": "2026-03-31T16:59:00.391488Z",
      "apogee_km": 476.68577740948786,
      "perigee_km": 473.733355708614,
      "latitude_deg": -4.4181866451872546e-05,
      "longitude_deg": -97.53481753728884,
      "height_km": 476.1013599924706,
      "semi_major_axis_km": 6853.34656655905,
      "eccentricity": 0.0002154,
      "inclination_deg": 53.16,
      "raan_deg": 346.298,
      "arg_perigee_deg": 89.805,
      "mean_anomaly_deg": 270.3197,
      "mean_motion_rev_day": 15.30201843
    },
    {
      "epoch": "2026-03-31T23:15:12.990240Z",
      "apogee_km": 476.1951750808412,
      "perigee_km": 474.2611554312052,
      "latitude_deg": 1.1212264688821192e-05,
      "longitude_deg": 166.93972271973846,
      "height_km": 476.5011071659388,
      "semi_major_axis_km": 6853.365165256023,
      "eccentricity": 0.0001411,
      "inclination_deg": 53.1601,
      "raan_deg": 345.0825,
      "arg_perigee_deg": 112.8114,
      "mean_anomaly_deg": 247.3036,
      "mean_motion_rev_day": 15.30195614
    },
    {
      "epoch": "2026-04-02T09:44:22.486848Z",
      "apogee_km": 476.5173879812846,
      "perigee_km": 473.7523669096108,
      "latitude_deg": -3.50480164713319e-05,
      "longitude_deg": 1.5610321004177588,
      "height_km": 475.7350499756505,
      "semi_major_axis_km": 6853.271877445448,
      "eccentricity": 0.00020173,
      "inclination_deg": 53.1614,
      "raan_deg": 338.4097,
      "arg_perigee_deg": 77.5912,
      "mean_anomaly_deg": 282.5314,
      "mean_motion_rev_day": 15.30226858
    },
    {
      "epoch": "2026-04-02T22:16:48.309024Z",
      "apogee_km": 476.12360277434254,
      "perigee_km": 474.30595681530485,
      "latitude_deg": 6.229485458626658e-05,
      "longitude_deg": 170.51309229901605,
      "height_km": 475.9212621868502,
      "semi_major_axis_km": 6853.351779794823,
      "eccentricity": 0.00013261,
      "inclination_deg": 53.1611,
      "raan_deg": 335.9843,
      "arg_perigee_deg": 77.825,
      "mean_anomaly_deg": 282.29,
      "mean_motion_rev_day": 15.30200097
    },
    {
      "epoch": "2026-04-03T01:24:54.599328Z",
      "apogee_km": 476.02090079350637,
      "perigee_km": 474.33964500011916,
      "latitude_deg": -2.9557476427836844e-05,
      "longitude_deg": 122.75216112629948,
      "height_km": 475.83832840642276,
      "semi_major_axis_km": 6853.317272896813,
      "eccentricity": 0.00012266,
      "inclination_deg": 53.1606,
      "raan_deg": 335.3784,
      "arg_perigee_deg": 73.3951,
      "mean_anomaly_deg": 286.7184,
      "mean_motion_rev_day": 15.30211654
    }
  ]
}